{
  "type": "FeatureCollection",
  "features": [
    {
      "type": "Feature",
      "properties": {
        "norad_id": 34540,
        "name": "IRIDIUM 33 DEB",
        "group": "iridium-33-debris",
        "lat": 13.427484191013317,
        "lon": -50.541778056596414,
        "alt_km": 655.5381797816435,
        "timestamp": "2025-12-10T14:53:37.473456+00:00",
        "meta_object_name": "IRIDIUM 33 DEB",
        "meta_object_id": "1997-051JH",
        "meta_epoch": "2025-12-09T21:03:31.895136",
        "meta_mean_motion": 14.75221849,
        "meta_eccentricity": 0.00159167,
        "meta_inclination": 86.3107,
        "meta_ra_of_asc_node": 308.9152,
        "meta_arg_of_pericenter": 169.314,
        "meta_mean_anomaly": 220.3312,
        "meta_ephemeris_type": 0,
        "meta_classification_type": "U",
        "meta_norad_cat_id": 34540,
        "meta_element_set_no": 999,
        "meta_rev_at_epoch": 88979,
        "meta_bstar": 0.0025690418,
        "meta_mean_motion_dot": 0.00017451,
        "meta_mean_motion_ddot": 0,
        "tle_line1": "1 34540U 97051JH  25343.87745249  .00017451  00000+0  25690-2 0  9992",
        "tle_line2": "2 34540  86.3107 308.9152 0015916 169.3140 220.3312 14.75221849889794"
      },
      "geometry": {
        "type": "Point",
        "coordinates": [
          -50.541778056596414,
          13.427484191013317
        ]
      }
    },
    {
      "type": "Feature",
      "properties": {
        "norad_id": 34648,
        "name": "IRIDIUM 33 DEB",
        "group": "iridium-33-debris",
        "lat": -73.60616392240186,
        "lon": -89.5876097009856,
        "alt_km": 736.5708329475628,
        "timestamp": "2025-12-10T14:53:37.473465+00:00",
        "meta_object_name": "IRIDIUM 33 DEB",
        "meta_object_id": "1997-051JZ",
        "meta_epoch": "2025-12-10T06:43:30.394560",
        "meta_mean_motion": 14.11372346,
        "meta_eccentricity": 0.01835322,
        "meta_inclination": 86.3905,
        "meta_ra_of_asc_node": 282.939,
        "meta_arg_of_pericenter": 306.5499,
        "meta_mean_anomaly": 51.8907,
        "meta_ephemeris_type": 0,
        "meta_classification_type": "U",
        "meta_norad_cat_id": 34648,
        "meta_element_set_no": 999,
        "meta_rev_at_epoch": 84926,
        "meta_bstar": 0.01266127,
        "meta_mean_motion_dot": 0.00026918,
        "meta_mean_motion_ddot": 0,
        "tle_line1": "1 34648U 97051JZ  25344.28021290  .00026918  00000+0  12661-1 0  9991",
        "tle_line2": "2 34648  86.3905 282.9390 0183532 306.5499  51.8907 14.11372346849260"
      },
      "geometry": {
        "type": "Point",
        "coordinates": [
          -89.5876097009856,
          -73.60616392240186
        ]
      }
    },
    {
      "type": "Feature",
      "properties": {
        "norad_id": 34651,
        "name": "IRIDIUM 33 DEB",
        "group": "iridium-33-debris",
        "lat": -55.758001982064556,
        "lon": -33.04374296357027,
        "alt_km": 720.5055556538337,
        "timestamp": "2025-12-10T14:53:37.473475+00:00",
        "meta_object_name": "IRIDIUM 33 DEB",
        "meta_object_id": "1997-051KC",
        "meta_epoch": "2025-12-09T17:34:37.579296",
        "meta_mean_motion": 14.25734133,
        "meta_eccentricity": 0.0142017,
        "meta_inclination": 86.2849,
        "meta_ra_of_asc_node": 141.8564,
        "meta_arg_of_pericenter": 213.5103,
        "meta_mean_anomaly": 145.7045,
        "meta_ephemeris_type": 0,
        "meta_classification_type": "U",
        "meta_norad_cat_id": 34651,
        "meta_element_set_no": 999,
        "meta_rev_at_epoch": 85853,
        "meta_bstar": 0.0052670304,
        "meta_mean_motion_dot": 0.0001393,
        "meta_mean_motion_ddot": 0,
        "tle_line1": "1 34651U 97051KC  25343.73237939  .00013930  00000+0  52670-2 0  9998",
        "tle_line2": "2 34651  86.2849 141.8564 0142017 213.5103 145.7045 14.25734133858535"
      },
      "geometry": {
        "type": "Point",
        "coordinates": [
          -33.04374296357027,
          -55.758001982064556
        ]
      }
    },
    {
      "type": "Feature",
      "properties": {
        "norad_id": 34652,
        "name": "IRIDIUM 33 DEB",
        "group": "iridium-33-debris",
        "lat": 10.256465201950684,
        "lon": -18.38977626584317,
        "alt_km": 680.1874177464388,
        "timestamp": "2025-12-10T14:53:37.473484+00:00",
        "meta_object_name": "IRIDIUM 33 DEB",
        "meta_object_id": "1997-051KD",
        "meta_epoch": "2025-12-09T11:37:22.959264",
        "meta_mean_motion": 14.62008914,
        "meta_eccentricity": 0.00262076,
        "meta_inclination": 86.3314,
        "meta_ra_of_asc_node": 341.4507,
        "meta_arg_of_pericenter": 310.1115,
        "meta_mean_anomaly": 203.3524,
        "meta_ephemeris_type": 0,
        "meta_classification_type": "U",
        "meta_norad_cat_id": 34652,
        "meta_element_set_no": 999,
        "meta_rev_at_epoch": 88436,
        "meta_bstar": 0.0015009226,
        "meta_mean_motion_dot": 7.584e-05,
        "meta_mean_motion_ddot": 0,
        "tle_line1": "1 34652U 97051KD  25343.48429351  .00007584  00000+0  15009-2 0  9995",
        "tle_line2": "2 34652  86.3314 341.4507 0026207 310.1115 203.3524 14.62008914884363"
      },
      "geometry": {
        "type": "Point",
        "coordinates": [
          -18.38977626584317,
          10.256465201950684
        ]
      }
    },
    {
      "type": "Feature",
      "properties": {
        "norad_id": 34690,
        "name": "IRIDIUM 33 DEB",
        "group": "iridium-33-debris",
        "lat": -73.80274396259368,
        "lon": 25.31705065144372,
        "alt_km": 719.1669921159264,
        "timestamp": "2025-12-10T14:53:37.473493+00:00",
        "meta_object_name": "IRIDIUM 33 DEB",
        "meta_object_id": "1997-051KM",
        "meta_epoch": "2025-12-09T15:10:43.095936",
        "meta_mean_motion": 14.55078564,
        "meta_eccentricity": 0.001121,
        "meta_inclination": 86.378,
        "meta_ra_of_asc_node": 38.3417,
        "meta_arg_of_pericenter": 38.8624,
        "meta_mean_anomaly": 114.3139,
        "meta_ephemeris_type": 0,
        "meta_classification_type": "U",
        "meta_norad_cat_id": 34690,
        "meta_element_set_no": 999,
        "meta_rev_at_epoch": 88049,
        "meta_bstar": 0.00073259,
        "meta_mean_motion_dot": 3.182e-05,
        "meta_mean_motion_ddot": 0,
        "tle_line1": "1 34690U 97051KM  25343.63244324  .00003182  00000+0  73259-3 0  9991",
        "tle_line2": "2 34690  86.3780  38.3417 0011210  38.8624 114.3139 14.55078564880494"
      },
      "geometry": {
        "type": "Point",
        "coordinates": [
          25.31705065144372,
          -73.80274396259368
        ]
      }
    },
    {
      "type": "Feature",
      "properties": {
        "norad_id": 34693,
        "name": "IRIDIUM 33 DEB",
        "group": "iridium-33-debris",
        "lat": 37.39272693031904,
        "lon": 122.04631550154019,
        "alt_km": 481.61031621875827,
        "timestamp": "2025-12-10T14:53:37.473502+00:00",
        "meta_object_name": "IRIDIUM 33 DEB",
        "meta_object_id": "1997-051KQ",
        "meta_epoch": "2025-12-09T21:06:11.395584",
        "meta_mean_motion": 15.26837164,
        "meta_eccentricity": 0.00146362,
        "meta_inclination": 86.3062,
        "meta_ra_of_asc_node": 305.2443,
        "meta_arg_of_pericenter": 57.3276,
        "meta_mean_anomaly": 332.8894,
        "meta_ephemeris_type": 0,
        "meta_classification_type": "U",
        "meta_norad_cat_id": 34693,
        "meta_element_set_no": 999,
        "meta_rev_at_epoch": 88871,
        "meta_bstar": 0.0064612782,
        "meta_mean_motion_dot": 0.00174516,
        "meta_mean_motion_ddot": 0,
        "tle_line1": "1 34693U 97051KQ  25343.87929856  .00174516  00000+0  64613-2 0  9993",
        "tle_line2": "2 34693  86.3062 305.2443 0014636  57.3276 332.8894 15.26837164888715"
      },
      "geometry": {
        "type": "Point",
        "coordinates": [
          122.04631550154019,
          37.39272693031904
        ]
      }
    },
    {
      "type": "Feature",
      "properties": {
        "norad_id": 34696,
        "name": "IRIDIUM 33 DEB",
        "group": "iridium-33-debris",
        "lat": -11.241173742869794,
        "lon": 27.74798444768089,
        "alt_km": 733.8799572546195,
        "timestamp": "2025-12-10T14:53:37.473511+00:00",
        "meta_object_name": "IRIDIUM 33 DEB",
        "meta_object_id": "1997-051KT",
        "meta_epoch": "2025-12-10T03:43:16.862592",
        "meta_mean_motion": 14.64869835,
        "meta_eccentricity": 0.00742093,
        "meta_inclination": 86.1846,
        "meta_ra_of_asc_node": 28.7244,
        "meta_arg_of_pericenter": 176.2548,
        "meta_mean_anomaly": 239.1587,
        "meta_ephemeris_type": 0,
        "meta_classification_type": "U",
        "meta_norad_cat_id": 34696,
        "meta_element_set_no": 999,
        "meta_rev_at_epoch": 86635,
        "meta_bstar": 0.0072837152,
        "meta_mean_motion_dot": 0.00040722,
        "meta_mean_motion_ddot": 0,
        "tle_line1": "1 34696U 97051KT  25344.15505628  .00040722  00000+0  72837-2 0  9993",
        "tle_line2": "2 34696  86.1846  28.7244 0074209 176.2548 239.1587 14.64869835866352"
      },
      "geometry": {
        "type": "Point",
        "coordinates": [
          27.74798444768089,
          -11.241173742869794
        ]
      }
    }
  ]
}